COSMOS 2419 (714)       
1 28915U 05050A   17177.09868551 -.00000037  00000-0  00000-0 0  9991
2 28915  65.5006  65.5529 0017098 354.7300  83.4854  2.13107030 89521
COSMOS 2425 (716)       
1 29670U 06062A   17177.11421285 -.00000036  00000-0  10000-3 0  9999
2 29670  65.4565 304.5610 0020103 349.2837 152.9334  2.13104991 81723
COSMOS 2426 (717)       
1 29671U 06062B   17176.69996155 -.00000036  00000-0  10000-3 0  9995
2 29671  65.4753 304.6660 0018564 161.1564 241.5272  2.13102999 81727
COSMOS 2424 (715)       
1 29672U 06062C   17177.14472208 -.00000036  00000-0  10000-3 0  9995
2 29672  65.4601 304.5716 0018045 160.2372  38.9334  2.13102356 81726
COSMOS 2433 (720)       
1 32275U 07052A   17176.91299395 -.00000036  00000-0  10000-3 0  9996
2 32275  65.5153  65.3364 0002426 303.6168 236.3122  2.13104689 75234
COSMOS 2432 (719)       
1 32276U 07052B   17176.89012834 -.00000036  00000-0  10000-3 0  9995
2 32276  65.5263  65.4102 0012685 340.9054 134.3537  2.13104196 75234
COSMOS 2434 (721)       
1 32393U 07065A   17177.00259360 -.00000036  00000-0  00000-0 0  9996
2 32393  65.0726 303.7099 0005662 114.0306  24.1842  2.13102998 73942
COSMOS 2436 (723)       
1 32395U 07065C   17177.05709318 -.00000036  00000-0  10000-3 0  9990
2 32395  65.0837 303.7547 0014175   6.1276 222.6309  2.13104408 73874
COSMOS 2443 (725)       
1 33379U 08046B   17176.01215795 -.00000033  00000-0  00000-0 0  9992
2 33379  65.4435  64.7492 0011583 178.8258 290.3512  2.13099451 68070
COSMOS 2456 (730)       
1 36111U 09070A   17176.74278034  .00000058  00000-0  00000-0 0  9998
2 36111  64.1803 183.2843 0006591 297.9200 172.1015  2.13102985 58602
COSMOS 2457 (733)       
1 36112U 09070B   17177.06839270  .00000056  00000-0  00000-0 0  9998
2 36112  64.1625 183.1920 0006355 192.9315 295.4049  2.13101680 58617
COSMOS 2458 (734)       
1 36113U 09070C   17177.05889563  .00000056  00000-0  10000-3 0  9992
2 36113  64.1680 183.2002 0002909 299.1005 229.9634  2.13102091 58617
COSMOS 2459 (731)       
1 36400U 10007A   17176.67319581 -.00000036  00000-0  10000-3 0  9997
2 36400  65.4234  64.4505 0028901 354.2598 223.7171  2.13102353 56957
COSMOS 2461 (735)       
1 36401U 10007B   17177.04039694 -.00000038  00000-0  10000-3 0  9996
2 36401  65.4177  64.4151 0007859  59.2328 351.0584  2.13102460 56966
COSMOS 2460 (732)       
1 36402U 10007C   17176.99025231 -.00000038  00000-0  10000-3 0  9992
2 36402  65.4070  64.3893 0001946  26.2706  26.8033  2.13101799 56966
COSMOS 2465 (737)       
1 37138U 10041B   17177.05953975 -.00000037  00000-0  00000-0 0  9995
2 37138  64.6705 303.6898 0036401 170.1234  56.7867  2.13097196 53039
COSMOS 2464 (736)       
1 37139U 10041C   17177.08722336 -.00000037  00000-0  00000-0 0  9994
2 37139  64.6790 303.6897 0022688  16.6490  54.2287  2.13102669 53034
COSMOS 2471 (701K)      
1 37372U 11009A   17177.12738411 -.00000038  00000-0  00000-0 0  9995
2 37372  65.4045  64.3319 0006974 239.5705  55.0354  2.13107677 49235
COSMOS 2474 (742)       
1 37829U 11055A   17176.95348557  .00000057  00000-0  00000-0 0  9991
2 37829  64.5050 183.8449 0010884 253.8364 237.5868  2.13102003 44605
COSMOS 2476 (744)       
1 37867U 11064A   17177.06187463  .00000056  00000-0  00000-0 0  9992
2 37867  64.4852 183.9121 0020125 246.8820  13.6414  2.13102065 43957
COSMOS 2477 (745)       
1 37868U 11064B   17177.06436366  .00000056  00000-0  00000-0 0  9992
2 37868  64.4930 183.9575 0018003 248.4852 193.0554  2.13101904 43918
COSMOS 2475 (743)       
1 37869U 11064C   17177.14136516  .00000056  00000-0  00000-0 0  9996
2 37869  64.5003 183.9463 0023028 271.1318 185.8801  2.13102095 43927
COSMOS 2485 (747)       
1 39155U 13019A   17177.11684105  .00000056  00000-0  00000-0 0  9997
2 39155  64.6543 183.9427 0020423 242.2457 105.4560  2.13102072 32424
COSMOS 2492 (754)       
1 39620U 14012A   17177.13393543 -.00000039  00000-0  10000-3 0  9999
2 39620  65.2968  64.3188 0015982 336.1283  58.8673  2.13103470 25385
COSMOS 2500 (755)       
1 40001U 14032A   17176.92781606 -.00000038  00000-0  00000-0 0  9998
2 40001  65.2366  64.3223 0004150 209.3570 250.5362  2.13102986 23595
COSMOS 2501 (702K)      
1 40315U 14075A   17177.09204191 -.00000038  00000-0  00000-0 0  9991
2 40315  64.4052 305.0287 0015036 204.2143 187.5974  2.13098712 20008
COSMOS 2514 (751)       
1 41330U 16008A   17177.10385896 -.00000039  00000-0  00000-0 0  9992
2 41330  65.0387  64.4585 0007606 219.5412 195.4151  2.13103486 10765
COSMOS 2516 (753)       
1 41554U 16032A   17176.98854645 -.00000038  00000-0  00000-0 0  9994
2 41554  64.6268 304.8003 0011505 213.1566   5.8786  2.13101631  8366
